{"type": "FeatureCollection", "features": [ {"type": "Feature", "properties": {"norad_id": 29820, "name": "FENGYUN 1C DEB", "group": "fengyun-1c-debris", "lat": 80.97972487740947, "lon": -82.8668551610207, "alt_km": 919.9490245013612, "timestamp": "2025-12-14T11:29:50.331999+00:00", "meta": {"OBJECT_NAME": "FENGYUN 1C DEB", "OBJECT_ID": "1999-025DN", "EPOCH": "2025-12-13T15:06:29.333952", "MEAN_MOTION": 14.02606416, "ECCENTRICITY": 0.00721327, "INCLINATION": 98.8318, "RA_OF_ASC_NODE": 354.6541, "ARG_OF_PERICENTER": 235.2393, "MEAN_ANOMALY": 246.0986, "EPHEMERIS_TYPE": 0, "CLASSIFICATION_TYPE": "U", "NORAD_CAT_ID": 29820, "ELEMENT_SET_NO": 999, "REV_AT_EPOCH": 96572, "BSTAR": 0.00080375975, "MEAN_MOTION_DOT": 1.225e-05, "MEAN_MOTION_DDOT": 0}, "tle": {"line1": "1 29820U 99025DN  25347.62950618  .00001225  00000+0  80376-3 0  9990", "line2": "2 29820  98.8318 354.6541 0072132 235.2393 246.0986 14.02606416965724"}}, "geometry": {"type": "Point", "coordinates": [-82.8668551610207, 80.97972487740947]}}, {"type": "Feature", "properties": {"norad_id": 29821, "name": "FENGYUN 1C DEB", "group": "fengyun-1c-debris", "lat": -14.940158158602387, "lon": -138.93228976196633, "alt_km": 799.5960487756065, "timestamp": "2025-12-14T11:29:50.332011+00:00", "meta": {"OBJECT_NAME": "FENGYUN 1C DEB", "OBJECT_ID": "1999-025DP", "EPOCH": "2025-12-13T14:53:35.258208", "MEAN_MOTION": 14.11075972, "ECCENTRICITY": 0.03762564, "INCLINATION": 98.8739, "RA_OF_ASC_NODE": 42.6064, "ARG_OF_PERICENTER": 118.2132, "MEAN_ANOMALY": 33.894, "EPHEMERIS_TYPE": 0, "CLASSIFICATION_TYPE": "U", "NORAD_CAT_ID": 29821, "ELEMENT_SET_NO": 999, "REV_AT_EPOCH": 96523, "BSTAR": 0.00108957, "MEAN_MOTION_DOT": 3.778e-05, "MEAN_MOTION_DDOT": 0}, "tle": {"line1": "1 29821U 99025DP  25347.62054697  .00003778  00000+0  10896-2 0  9997", "line2": "2 29821  98.8739  42.6064 0376256 118.2132  33.8940 14.11075972965236"}}, "geometry": {"type": "Point", "coordinates": [-138.93228976196633, -14.940158158602387]}}, {"type": "Feature", "properties": {"norad_id": 29827, "name": "FENGYUN 1C DEB", "group": "fengyun-1c-debris", "lat": -58.89683424259981, "lon": 145.10299365961666, "alt_km": 822.7845400195365, "timestamp": "2025-12-14T11:29:50.332021+00:00", "meta": {"OBJECT_NAME": "FENGYUN 1C DEB", "OBJECT_ID": "1999-025DV", "EPOCH": "2025-12-13T13:00:24.867072", "MEAN_MOTION": 14.21689004, "ECCENTRICITY": 0.00249855, "INCLINATION": 98.6022, "RA_OF_ASC_NODE": 338.7204, "ARG_OF_PERICENTER": 320.1187, "MEAN_ANOMALY": 166.6501, "EPHEMERIS_TYPE": 0, "CLASSIFICATION_TYPE": "U", "NORAD_CAT_ID": 29827, "ELEMENT_SET_NO": 999, "REV_AT_EPOCH": 97874, "BSTAR": 0.00048740654, "MEAN_MOTION_DOT": 1.031e-05, "MEAN_MOTION_DDOT": 0}, "tle": {"line1": "1 29827U 99025DV  25347.54195448  .00001031  00000+0  48741-3 0  9995", "line2": "2 29827  98.6022 338.7204 0024985 320.1187 166.6501 14.21689004978749"}}, "geometry": {"type": "Point", "coordinates": [145.10299365961666, -58.89683424259981]}}, {"type": "Feature", "properties": {"norad_id": 29828, "name": "FENGYUN 1C DEB", "group": "fengyun-1c-debris", "lat": -32.366041191110206, "lon": -151.7146499999229, "alt_km": 850.2134234417053, "timestamp": "2025-12-14T11:29:50.332032+00:00", "meta": {"OBJECT_NAME": "FENGYUN 1C DEB", "OBJECT_ID": "1999-025DW", "EPOCH": "2025-12-13T14:44:56.446944", "MEAN_MOTION": 14.08166019, "ECCENTRICITY": 0.00614243, "INCLINATION": 98.7703, "RA_OF_ASC_NODE": 33.0601, "ARG_OF_PERICENTER": 153.6568, "MEAN_ANOMALY": 358.2947, "EPHEMERIS_TYPE": 0, "CLASSIFICATION_TYPE": "U", "NORAD_CAT_ID": 29828, "ELEMENT_SET_NO": 999, "REV_AT_EPOCH": 96749, "BSTAR": 0.00099903416, "MEAN_MOTION_DOT": 1.691e-05, "MEAN_MOTION_DDOT": 0}, "tle": {"line1": "1 29828U 99025DW  25347.61454221  .00001691  00000+0  99903-3 0  9999", "line2": "2 29828  98.7703  33.0601 0061424 153.6568 358.2947 14.08166019967498"}}, "geometry": {"type": "Point", "coordinates": [-151.7146499999229, -32.366041191110206]}}, {"type": "Feature", "properties": {"norad_id": 29832, "name": "FENGYUN 1C DEB", "group": "fengyun-1c-debris", "lat": -3.9371918772455716, "lon": -80.6053028425456, "alt_km": 714.4947495774531, "timestamp": "2025-12-14T11:29:50.332042+00:00", "meta": {"OBJECT_NAME": "FENGYUN 1C DEB", "OBJECT_ID": "1999-025EA", "EPOCH": "2025-12-13T13:12:10.997856", "MEAN_MOTION": 14.56557799, "ECCENTRICITY": 0.01922121, "INCLINATION": 98.8194, "RA_OF_ASC_NODE": 99.0242, "ARG_OF_PERICENTER": 280.6279, "MEAN_ANOMALY": 77.3322, "EPHEMERIS_TYPE": 0, "CLASSIFICATION_TYPE": "U", "NORAD_CAT_ID": 29832, "ELEMENT_SET_NO": 999, "REV_AT_EPOCH": 267, "BSTAR": 0.0002252573, "MEAN_MOTION_DOT": 1.223e-05, "MEAN_MOTION_DDOT": 0}, "tle": {"line1": "1 29832U 99025EA  25347.55012729  .00001223  00000+0  22526-3 0  9998", "line2": "2 29832  98.8194  99.0242 0192212 280.6279  77.3322 14.56557799  2679"}}, "geometry": {"type": "Point", "coordinates": [-80.6053028425456, -3.9371918772455716]}}, {"type": "Feature", "properties": {"norad_id": 29833, "name": "FENGYUN 1C DEB", "group": "fengyun-1c-debris", "lat": 48.21036849754529, "lon": -39.245649526683934, "alt_km": 647.0823188050663, "timestamp": "2025-12-14T11:29:50.332053+00:00", "meta": {"OBJECT_NAME": "FENGYUN 1C DEB", "OBJECT_ID": "1999-025EB", "EPOCH": "2025-12-12T22:14:05.267904", "MEAN_MOTION": 14.91112667, "ECCENTRICITY": 0.00887773, "INCLINATION": 99.0776, "RA_OF_ASC_NODE": 329.2748, "ARG_OF_PERICENTER": 256.4892, "MEAN_ANOMALY": 102.6419, "EPHEMERIS_TYPE": 0, "CLASSIFICATION_TYPE": "U", "NORAD_CAT_ID": 29833, "ELEMENT_SET_NO": 999, "REV_AT_EPOCH": 574, "BSTAR": 0.0016003222, "MEAN_MOTION_DOT": 0.00017065, "MEAN_MOTION_DDOT": 0}, "tle": {"line1": "1 29833U 99025EB  25346.92644986  .00017065  00000+0  16003-2 0  9998", "line2": "2 29833  99.0776 329.2748 0088777 256.4892 102.6419 14.91112667  5740"}}, "geometry": {"type": "Point", "coordinates": [-39.245649526683934, 48.21036849754529]}}, {"type": "Feature", "properties": {"norad_id": 29835, "name": "FENGYUN 1C DEB", "group": "fengyun-1c-debris", "lat": -63.753178382367146, "lon": 135.7778493729331, "alt_km": 767.7119609361189, "timestamp": "2025-12-14T11:29:50.332063+00:00", "meta": {"OBJECT_NAME": "FENGYUN 1C DEB", "OBJECT_ID": "1999-025ED", "EPOCH": "2025-12-13T07:45:07.517088", "MEAN_MOTION": 14.43375088, "ECCENTRICITY": 0.01679118, "INCLINATION": 99.0255, "RA_OF_ASC_NODE": 115.7477, "ARG_OF_PERICENTER": 35.5071, "MEAN_ANOMALY": 17.6186, "EPHEMERIS_TYPE": 0, "CLASSIFICATION_TYPE": "U", "NORAD_CAT_ID": 29835, "ELEMENT_SET_NO": 999, "REV_AT_EPOCH": 99503, "BSTAR": 9.5876345e-05, "MEAN_MOTION_DOT": 3.27e-06, "MEAN_MOTION_DDOT": 0}, "tle": {"line1": "1 29835U 99025ED  25347.32300367  .00000327  00000+0  95876-4 0  9997", "line2": "2 29835  99.0255 115.7477 0167911  35.5071  17.6186 14.43375088995035"}}, "geometry": {"type": "Point", "coordinates": [135.7778493729331, -63.753178382367146]}}, {"type": "Feature", "properties": {"norad_id": 29836, "name": "FENGYUN 1C DEB", "group": "fengyun-1c-debris", "lat": -72.64930815684946, "lon": -123.05991079224131, "alt_km": 659.624649352907, "timestamp": "2025-12-14T11:29:50.332073+00:00", "meta": {"OBJECT_NAME": "FENGYUN 1C DEB", "OBJECT_ID": "1999-025EE", "EPOCH": "2025-12-12T05:44:43.646784", "MEAN_MOTION": 14.54098114, "ECCENTRICITY": 0.01545375, "INCLINATION": 98.1879, "RA_OF_ASC_NODE": 82.1893, "ARG_OF_PERICENTER": 203.9256, "MEAN_ANOMALY": 211.9627, "EPHEMERIS_TYPE": 0, "CLASSIFICATION_TYPE": "U", "NORAD_CAT_ID": 29836, "ELEMENT_SET_NO": 999, "REV_AT_EPOCH": 63548, "BSTAR": 0.0010735271, "MEAN_MOTION_DOT": 5.267e-05, "MEAN_MOTION_DDOT": 0}, "tle": {"line1": "1 29836U 99025EE  25346.23939406  .00005267  00000+0  10735-2 0  9996", "line2": "2 29836  98.1879  82.1893 0154537 203.9256 211.9627 14.54098114635486"}}, "geometry": {"type": "Point", "coordinates": [-123.05991079224131, -72.64930815684946]}}, {"type": "Feature", "properties": {"norad_id": 29841, "name": "FENGYUN 1C DEB", "group": "fengyun-1c-debris", "lat": -37.67419086879372, "lon": 108.81416216386235, "alt_km": 790.6271393603729, "timestamp": "2025-12-14T11:29:50.332083+00:00", "meta": {"OBJECT_NAME": "FENGYUN 1C DEB", "OBJECT_ID": "1999-025EK", "EPOCH": "2025-12-13T03:00:08.563968", "MEAN_MOTION": 14.46478897, "ECCENTRICITY": 0.02004555, "INCLINATION": 98.8182, "RA_OF_ASC_NODE": 294.2893, "ARG_OF_PERICENTER": 332.5368, "MEAN_ANOMALY": 41.2852, "EPHEMERIS_TYPE": 0, "CLASSIFICATION_TYPE": "U", "NORAD_CAT_ID": 29841, "ELEMENT_SET_NO": 999, "REV_AT_EPOCH": 99329, "BSTAR": 0.00083513509, "MEAN_MOTION_DOT": 3.802e-05, "MEAN_MOTION_DDOT": 0}, "tle": {"line1": "1 29841U 99025EK  25347.12509912  .00003802  00000+0  83514-3 0  9995", "line2": "2 29841  98.8182 294.2893 0200455 332.5368  41.2852 14.46478897993297"}}, "geometry": {"type": "Point", "coordinates": [108.81416216386235, -37.67419086879372]}}, {"type": "Feature", "properties": {"norad_id": 29842, "name": "FENGYUN 1C DEB", "group": "fengyun-1c-debris", "lat": -5.580441863275863, "lon": 76.91740337160236, "alt_km": 770.5056068005542, "timestamp": "2025-12-14T11:29:50.332094+00:00", "meta": {"OBJECT_NAME": "FENGYUN 1C DEB", "OBJECT_ID": "1999-025EL", "EPOCH": "2025-12-12T05:22:57.150912", "MEAN_MOTION": 14.60243235, "ECCENTRICITY": 0.0109114, "INCLINATION": 98.5686, "RA_OF_ASC_NODE": 73.7426, "ARG_OF_PERICENTER": 166.9162, "MEAN_ANOMALY": 221.52, "EPHEMERIS_TYPE": 0, "CLASSIFICATION_TYPE": "U", "NORAD_CAT_ID": 29842, "ELEMENT_SET_NO": 999, "REV_AT_EPOCH": 99346, "BSTAR": 0.0021729163, "MEAN_MOTION_DOT": 0.0001136, "MEAN_MOTION_DDOT": 0}, "tle": {"line1": "1 29842U 99025EL  25346.22427258  .00011360  00000+0  21729-2 0  9995", "line2": "2 29842  98.5686  73.7426 0109114 166.9162 221.5200 14.60243235993468"}}, "geometry": {"type": "Point", "coordinates": [76.91740337160236, -5.580441863275863]}}]}